STARLINK-36189          
1 67010U 25293H   26001.83336806 -.00041674  00000+0 -67710-3 0  9998
2 67010  70.0063 266.4404 0003074 267.0092 257.7090 15.52566007  3390
STARLINK-36167          
1 67011U 25293J   26001.83336806 -.00149305  00000+0 -24622-2 0  9993
2 67011  70.0000 266.4430 0002869 264.7186 258.0819 15.52608273  3328
STARLINK-36175          
1 67012U 25293K   26001.83336806 -.00188478  00000+0 -31230-2 0  9991
2 67012  70.0002 266.4369 0003079 267.0526 259.5845 15.52617371  3335
STARLINK-35856          
1 67013U 25293L   26001.83336806 -.00158465  00000+0 -26158-2 0  9998
2 67013  70.0005 266.4354 0003390 264.9167 263.6366 15.52612521  3332
STARLINK-36207          
1 67014U 25293M   26001.83336806 -.00155493  00000+0 -25658-2 0  9991
2 67014  70.0004 266.4337 0003466 265.8590 264.6098 15.52611119  3398
STARLINK-36093          
1 67015U 25293N   26001.83336806 -.00145784  00000+0 -24030-2 0  9997
2 67015  70.0005 266.4289 0003374 265.7522 268.5487 15.52605462  3331
STARLINK-36120          
1 67016U 25293P   26001.83336806 -.00145000  00000+0 -23899-2 0  9991
2 67016  70.0003 266.4307 0003365 265.8437 266.5397 15.52604680  3336
STARLINK-35498          
1 67017U 25293Q   26001.83336806 -.00148919  00000+0 -24556-2 0  9995
2 67017  70.0003 266.4265 0003372 266.5864 269.6307 15.52607468  3523
STARLINK-36106          
1 67018U 25293R   26001.83336806 -.00173118  00000+0 -28622-2 0  9993
2 67018  70.0004 266.4241 0003238 266.3822 271.7490 15.52621965  3448
STARLINK-35688          
1 67019U 25293S   26001.83336806 -.00138415  00000+0 -22796-2 0  9991
2 67019  70.0005 266.4218 0003310 263.9910 276.0604 15.52602915  3524
STARLINK-36172          
1 67020U 25293T   26001.83336806 -.00149786  00000+0 -24700-2 0  9993
2 67020  70.0003 266.4197 0003293 263.4677 278.4946 15.52609967  3445
STARLINK-36184          
1 67021U 25293U   26001.83336806 -.00165355  00000+0 -27313-2 0  9997
2 67021  70.0005 266.4170 0003108 264.5239 279.3543 15.52620597  3445
